{"type": "FeatureCollection", "features": [ {"type": "Feature", "properties": {"norad_id": 35759, "name": "COSMOS 2251 DEB", "group": "cosmos-2251-debris", "lat": 36.658721727858264, "lon": -122.42594871486473, "alt_km": 642.4883142765448, "timestamp": "2025-12-07T22:37:43.478699+00:00", "meta": {"OBJECT_NAME": "COSMOS 2251 DEB", "OBJECT_ID": "1993-036ARD", "EPOCH": "2025-12-02T09:41:30.767712", "MEAN_MOTION": 14.648293, "ECCENTRICITY": 0.00766899, "INCLINATION": 74.0385, "RA_OF_ASC_NODE": 235.9215, "ARG_OF_PERICENTER": 356.5872, "MEAN_ANOMALY": 3.4761, "EPHEMERIS_TYPE": 0, "CLASSIFICATION_TYPE": "U", "NORAD_CAT_ID": 35759, "ELEMENT_SET_NO": 999, "REV_AT_EPOCH": 65984, "BSTAR": 0.00048578617, "MEAN_MOTION_DOT": 2.675e-05, "MEAN_MOTION_DDOT": 0}, "tle": {"line1": "1 35759U 93036ARD 25336.40382833  .00002675  00000+0  48579-3 0  9995", "line2": "2 35759  74.0385 235.9215 0076689 356.5872   3.4761 14.64829300659847"}}, "geometry": {"type": "Point", "coordinates": [-122.42594871486473, 36.658721727858264]}}, {"type": "Feature", "properties": {"norad_id": 35771, "name": "COSMOS 2251 DEB", "group": "cosmos-2251-debris", "lat": -34.76347476624003, "lon": 150.12826284914664, "alt_km": 727.9319157944101, "timestamp": "2025-12-07T22:37:43.478710+00:00", "meta": {"OBJECT_NAME": "COSMOS 2251 DEB", "OBJECT_ID": "1993-036ARR", "EPOCH": "2025-12-01T22:51:30.244896", "MEAN_MOTION": 14.12926683, "ECCENTRICITY": 0.02319351, "INCLINATION": 74.1552, "RA_OF_ASC_NODE": 329.2812, "ARG_OF_PERICENTER": 270.0606, "MEAN_ANOMALY": 87.396, "EPHEMERIS_TYPE": 0, "CLASSIFICATION_TYPE": "U", "NORAD_CAT_ID": 35771, "ELEMENT_SET_NO": 999, "REV_AT_EPOCH": 82708, "BSTAR": 0.0067662276, "MEAN_MOTION_DOT": 0.00016281, "MEAN_MOTION_DDOT": 0}, "tle": {"line1": "1 35771U 93036ARR 25335.95243339  .00016281  00000+0  67662-2 0  9996", "line2": "2 35771  74.1552 329.2812 0231935 270.0606  87.3960 14.12926683827080"}}, "geometry": {"type": "Point", "coordinates": [150.12826284914664, -34.76347476624003]}}, {"type": "Feature", "properties": {"norad_id": 35773, "name": "COSMOS 2251 DEB", "group": "cosmos-2251-debris", "lat": -27.95099912228266, "lon": -18.7311575982981, "alt_km": 724.4851819670439, "timestamp": "2025-12-07T22:37:43.478721+00:00", "meta": {"OBJECT_NAME": "COSMOS 2251 DEB", "OBJECT_ID": "1993-036ART", "EPOCH": "2025-12-06T10:38:01.749120", "MEAN_MOTION": 14.62016712, "ECCENTRICITY": 0.00458657, "INCLINATION": 74.0075, "RA_OF_ASC_NODE": 352.8969, "ARG_OF_PERICENTER": 154.7377, "MEAN_ANOMALY": 205.6047, "EPHEMERIS_TYPE": 0, "CLASSIFICATION_TYPE": "U", "NORAD_CAT_ID": 35773, "ELEMENT_SET_NO": 999, "REV_AT_EPOCH": 86747, "BSTAR": 0.0010371973, "MEAN_MOTION_DOT": 5.254e-05, "MEAN_MOTION_DDOT": 0}, "tle": {"line1": "1 35773U 93036ART 25340.44307580  .00005254  00000+0  10372-2 0  9991", "line2": "2 35773  74.0075 352.8969 0045865 154.7377 205.6047 14.62016712867470"}}, "geometry": {"type": "Point", "coordinates": [-18.7311575982981, -27.95099912228266]}}, {"type": "Feature", "properties": {"norad_id": 35777, "name": "COSMOS 2251 DEB", "group": "cosmos-2251-debris", "lat": 52.70583847571283, "lon": -7.106492448915819, "alt_km": 1432.2165493934126, "timestamp": "2025-12-07T22:37:43.478742+00:00", "meta": {"OBJECT_NAME": "COSMOS 2251 DEB", "OBJECT_ID": "1993-036ARX", "EPOCH": "2025-12-02T10:40:29.464608", "MEAN_MOTION": 13.41287955, "ECCENTRICITY": 0.04528031, "INCLINATION": 73.7709, "RA_OF_ASC_NODE": 339.1914, "ARG_OF_PERICENTER": 235.501, "MEAN_ANOMALY": 282.7283, "EPHEMERIS_TYPE": 0, "CLASSIFICATION_TYPE": "U", "NORAD_CAT_ID": 35777, "ELEMENT_SET_NO": 999, "REV_AT_EPOCH": 79546, "BSTAR": 0.00081766672, "MEAN_MOTION_DOT": 8.07e-06, "MEAN_MOTION_DDOT": 0}, "tle": {"line1": "1 35777U 93036ARX 25336.44478547  .00000807  00000+0  81767-3 0  9998", "line2": "2 35777  73.7709 339.1914 0452803 235.5010 282.7283 13.41287955795460"}}, "geometry": {"type": "Point", "coordinates": [-7.106492448915819, 52.70583847571283]}}, {"type": "Feature", "properties": {"norad_id": 35784, "name": "COSMOS 2251 DEB", "group": "cosmos-2251-debris", "lat": -13.293584000013364, "lon": -77.4078193310134, "alt_km": 705.7429001503451, "timestamp": "2025-12-07T22:37:43.478755+00:00", "meta": {"OBJECT_NAME": "COSMOS 2251 DEB", "OBJECT_ID": "1993-036ASE", "EPOCH": "2025-12-05T15:05:34.155456", "MEAN_MOTION": 14.50011306, "ECCENTRICITY": 0.00419479, "INCLINATION": 74.0372, "RA_OF_ASC_NODE": 103.0578, "ARG_OF_PERICENTER": 235.0897, "MEAN_ANOMALY": 124.6319, "EPHEMERIS_TYPE": 0, "CLASSIFICATION_TYPE": "U", "NORAD_CAT_ID": 35784, "ELEMENT_SET_NO": 999, "REV_AT_EPOCH": 65603, "BSTAR": 0.00065783499, "MEAN_MOTION_DOT": 2.549e-05, "MEAN_MOTION_DDOT": 0}, "tle": {"line1": "1 35784U 93036ASE 25339.62886754  .00002549  00000+0  65783-3 0  9997", "line2": "2 35784  74.0372 103.0578 0041947 235.0897 124.6319 14.50011306656032"}}, "geometry": {"type": "Point", "coordinates": [-77.4078193310134, -13.293584000013364]}}, {"type": "Feature", "properties": {"norad_id": 35786, "name": "COSMOS 2251 DEB", "group": "cosmos-2251-debris", "lat": -13.437856340078055, "lon": -123.0446719251844, "alt_km": 653.5437937036968, "timestamp": "2025-12-07T22:37:43.478765+00:00", "meta": {"OBJECT_NAME": "COSMOS 2251 DEB", "OBJECT_ID": "1993-036ASG", "EPOCH": "2025-12-06T11:21:25.648992", "MEAN_MOTION": 14.66117406, "ECCENTRICITY": 0.00346261, "INCLINATION": 74.0149, "RA_OF_ASC_NODE": 55.8624, "ARG_OF_PERICENTER": 187.1836, "MEAN_ANOMALY": 172.8842, "EPHEMERIS_TYPE": 0, "CLASSIFICATION_TYPE": "U", "NORAD_CAT_ID": 35786, "ELEMENT_SET_NO": 999, "REV_AT_EPOCH": 73316, "BSTAR": 0.0020784465, "MEAN_MOTION_DOT": 0.0001151, "MEAN_MOTION_DDOT": 0}, "tle": {"line1": "1 35786U 93036ASG 25340.47321353  .00011510  00000+0  20784-2 0  9992", "line2": "2 35786  74.0149  55.8624 0034626 187.1836 172.8842 14.66117406733169"}}, "geometry": {"type": "Point", "coordinates": [-123.0446719251844, -13.437856340078055]}}, {"type": "Feature", "properties": {"norad_id": 35789, "name": "COSMOS 2251 DEB", "group": "cosmos-2251-debris", "lat": 45.457307618876925, "lon": -49.91827390687618, "alt_km": 734.7616589508161, "timestamp": "2025-12-07T22:37:43.478776+00:00", "meta": {"OBJECT_NAME": "COSMOS 2251 DEB", "OBJECT_ID": "1993-036ASK", "EPOCH": "2025-12-06T14:38:26.509056", "MEAN_MOTION": 14.35977484, "ECCENTRICITY": 0.00472063, "INCLINATION": 74.0392, "RA_OF_ASC_NODE": 295.6215, "ARG_OF_PERICENTER": 36.7286, "MEAN_ANOMALY": 323.7086, "EPHEMERIS_TYPE": 0, "CLASSIFICATION_TYPE": "U", "NORAD_CAT_ID": 35789, "ELEMENT_SET_NO": 999, "REV_AT_EPOCH": 61139, "BSTAR": 0.00024671303, "MEAN_MOTION_DOT": 7e-06, "MEAN_MOTION_DDOT": 0}, "tle": {"line1": "1 35789U 93036ASK 25340.61002904  .00000700  00000+0  24671-3 0  9998", "line2": "2 35789  74.0392 295.6215 0047206  36.7286 323.7086 14.35977484611391"}}, "geometry": {"type": "Point", "coordinates": [-49.91827390687618, 45.457307618876925]}}, {"type": "Feature", "properties": {"norad_id": 35793, "name": "COSMOS 2251 DEB", "group": "cosmos-2251-debris", "lat": 73.40102474856099, "lon": 143.36476581158442, "alt_km": 625.4918458620368, "timestamp": "2025-12-07T22:37:43.478787+00:00", "meta": {"OBJECT_NAME": "COSMOS 2251 DEB", "OBJECT_ID": "1993-036ASP", "EPOCH": "2025-12-07T00:18:39.917664", "MEAN_MOTION": 14.78452882, "ECCENTRICITY": 0.00030265, "INCLINATION": 74.0395, "RA_OF_ASC_NODE": 71.4359, "ARG_OF_PERICENTER": 142.8358, "MEAN_ANOMALY": 35.2805, "EPHEMERIS_TYPE": 0, "CLASSIFICATION_TYPE": "U", "NORAD_CAT_ID": 35793, "ELEMENT_SET_NO": 999, "REV_AT_EPOCH": 65712, "BSTAR": 0.0029239002, "MEAN_MOTION_DOT": 0.00021364, "MEAN_MOTION_DDOT": 0}, "tle": {"line1": "1 35793U 93036ASP 25341.01296201  .00021364  00000+0  29239-2 0  9996", "line2": "2 35793  74.0395  71.4359 0003026 142.8358  35.2805 14.78452882657121"}}, "geometry": {"type": "Point", "coordinates": [143.36476581158442, 73.40102474856099]}}, {"type": "Feature", "properties": {"norad_id": 35824, "name": "COSMOS 2251 DEB", "group": "cosmos-2251-debris", "lat": -42.06790533250615, "lon": -107.7991002340335, "alt_km": 904.732981631766, "timestamp": "2025-12-07T22:37:43.478797+00:00", "meta": {"OBJECT_NAME": "COSMOS 2251 DEB", "OBJECT_ID": "1993-036ASW", "EPOCH": "2025-12-06T23:05:35.922912", "MEAN_MOTION": 13.88386485, "ECCENTRICITY": 0.02496418, "INCLINATION": 73.8461, "RA_OF_ASC_NODE": 58.7213, "ARG_OF_PERICENTER": 145.89, "MEAN_ANOMALY": 215.8558, "EPHEMERIS_TYPE": 0, "CLASSIFICATION_TYPE": "U", "NORAD_CAT_ID": 35824, "ELEMENT_SET_NO": 999, "REV_AT_EPOCH": 84147, "BSTAR": 0.0021667349, "MEAN_MOTION_DOT": 3.307e-05, "MEAN_MOTION_DDOT": 0}, "tle": {"line1": "1 35824U 93036ASW 25340.96222133  .00003307  00000+0  21667-2 0  9991", "line2": "2 35824  73.8461  58.7213 0249641 145.8900 215.8558 13.88386485841474"}}, "geometry": {"type": "Point", "coordinates": [-107.7991002340335, -42.06790533250615]}}, {"type": "Feature", "properties": {"norad_id": 35825, "name": "COSMOS 2251 DEB", "group": "cosmos-2251-debris", "lat": 5.879573975271665, "lon": -31.157179513324483, "alt_km": 916.2301209684083, "timestamp": "2025-12-07T22:37:43.478808+00:00", "meta": {"OBJECT_NAME": "COSMOS 2251 DEB", "OBJECT_ID": "1993-036ASX", "EPOCH": "2025-12-06T17:43:31.257408", "MEAN_MOTION": 13.70908059, "ECCENTRICITY": 0.03529553, "INCLINATION": 74.1125, "RA_OF_ASC_NODE": 152.5025, "ARG_OF_PERICENTER": 249.6557, "MEAN_ANOMALY": 106.6316, "EPHEMERIS_TYPE": 0, "CLASSIFICATION_TYPE": "U", "NORAD_CAT_ID": 35825, "ELEMENT_SET_NO": 999, "REV_AT_EPOCH": 82426, "BSTAR": 0.0026115912, "MEAN_MOTION_DOT": 3.599e-05, "MEAN_MOTION_DDOT": 0}, "tle": {"line1": "1 35825U 93036ASX 25340.73855622  .00003599  00000+0  26116-2 0  9999", "line2": "2 35825  74.1125 152.5025 0352955 249.6557 106.6316 13.70908059824269"}}, "geometry": {"type": "Point", "coordinates": [-31.157179513324483, 5.879573975271665]}}]}